0 COSMOS 2251 DEB
1 34337U 93036PK  13281.79589240  .00004279  00000-0  51180-3 0  3668
2 34337 073.9914 315.4372 0147011 117.6452 002.0394 14.76986559248967
0 COSMOS 2251 DEB
1 34337U 93036PK  13283.13861729  .00005898  00000-0  70318-3 0  3676
2 34337 073.9915 312.7973 0147002 114.6628 301.5636 14.77005744249165
0 COSMOS 2251 DEB
1 34337U 93036PK  13284.15532479  .00005466  00000-0  65211-3 0  3684
2 34337 073.9917 310.7980 0146922 112.3916 307.6577 14.77014264249313
0 COSMOS 2251 DEB
1 34337U 93036PK  13286.47711785  .00004941  00000-0  58978-3 0  3702
2 34337 073.9909 306.2317 0146827 107.1903 053.3650 14.77032638249659
0 COSMOS 2251 DEB
1 34337U 93036PK  13287.49259441  .00005534  00000-0  65996-3 0  3719
2 34337 073.9907 304.2347 0146764 104.9078 053.0322 14.77040950249802
0 COSMOS 2251 DEB
1 34337U 93036PK  13288.50747689  .00008834  00000-0  10497-2 0  3720
2 34337 073.9903 302.2384 0146762 102.6480 049.5665 14.77057656249954
0 COSMOS 2251 DEB
1 34337U 93036PK  13290.47130397  .00008170  00000-0  97079-3 0  3737
2 34337 073.9900 298.3753 0146735 098.2732 052.1586 14.77080759250242
0 COSMOS 2251 DEB
1 34337U 93036PK  13292.00725106  .00006416  00000-0  76327-3 0  3741
2 34337 073.9900 295.3535 0146704 094.8446 299.6337 14.77099876250474
0 COSMOS 2251 DEB
1 34337U 93036PK  13293.09622198  .00006572  00000-0  78150-3 0  3758
2 34337 073.9902 293.2111 0146663 092.3947 330.3718 14.77112448250631
0 COSMOS 2251 DEB
1 34337U 93036PK  13294.11293465  .00008462  00000-0  10044-2 0  3761
2 34337 073.9905 291.2109 0146655 090.1613 336.8643 14.77122821250786
0 COSMOS 2251 DEB
1 34337U 93036PK  13295.41514477  .00009949  00000-0  11793-2 0  3778
2 34337 073.9908 288.6493 0146655 087.2429 061.6425 14.77140384250973
